{
  "type": "FeatureCollection",
  "features": [
    {
      "type": "Feature",
      "properties": {
        "norad_id": 43648,
        "name": "BEIDOU-3 M15 (C34)",
        "group": "gnss",
        "lat": -54.25566523782499,
        "lon": -144.7777323535736,
        "alt_km": 21537.03304664202,
        "timestamp": "2025-12-07T20:38:14.309868+00:00",
        "meta_object_name": "BEIDOU-3 M15 (C34)",
        "meta_object_id": "2018-078B",
        "meta_epoch": "2025-12-05T07:27:18.667008",
        "meta_mean_motion": 1.86231965,
        "meta_eccentricity": 0.00036856,
        "meta_inclination": 54.2646,
        "meta_ra_of_asc_node": 306.7819,
        "meta_arg_of_pericenter": 17.7509,
        "meta_mean_anomaly": 342.2442,
        "meta_ephemeris_type": 0,
        "meta_classification_type": "U",
        "meta_norad_cat_id": 43648,
        "meta_element_set_no": 999,
        "meta_rev_at_epoch": 4856,
        "meta_bstar": 0,
        "meta_mean_motion_dot": -6.9e-07,
        "meta_mean_motion_ddot": 0,
        "tle_line1": "1 43648U 18078B   25339.31063272 -.00000069  00000+0  00000+0 0  9999",
        "tle_line2": "2 43648  54.2646 306.7819 0003685  17.7509 342.2442  1.86231965 48564"
      },
      "geometry": {
        "type": "Point",
        "coordinates": [
          -144.7777323535736,
          -54.25566523782499
        ]
      }
    },
    {
      "type": "Feature",
      "properties": {
        "norad_id": 43683,
        "name": "BEIDOU-3 G1 (C59)",
        "group": "gnss",
        "lat": 2.3193967555598523,
        "lon": 166.4769705970214,
        "alt_km": 35777.8807181085,
        "timestamp": "2025-12-07T20:38:14.309880+00:00",
        "meta_object_name": "BEIDOU-3 G1 (C59)",
        "meta_object_id": "2018-085A",
        "meta_epoch": "2025-12-07T05:44:22.838208",
        "meta_mean_motion": 1.00272451,
        "meta_eccentricity": 0.00018552,
        "meta_inclination": 2.5933,
        "meta_ra_of_asc_node": 103.1105,
        "meta_arg_of_pericenter": 64.4001,
        "meta_mean_anomaly": 134.9149,
        "meta_ephemeris_type": 0,
        "meta_classification_type": "U",
        "meta_norad_cat_id": 43683,
        "meta_element_set_no": 999,
        "meta_rev_at_epoch": 2613,
        "meta_bstar": 0,
        "meta_mean_motion_dot": -2.73e-06,
        "meta_mean_motion_ddot": 0,
        "tle_line1": "1 43683U 18085A   25341.23915322 -.00000273  00000+0  00000+0 0  9999",
        "tle_line2": "2 43683   2.5933 103.1105 0001855  64.4001 134.9149  1.00272451 26138"
      },
      "geometry": {
        "type": "Point",
        "coordinates": [
          166.4769705970214,
          2.3193967555598523
        ]
      }
    },
    {
      "type": "Feature",
      "properties": {
        "norad_id": 43687,
        "name": "COSMOS 2529 (757)",
        "group": "gnss",
        "lat": 60.71075963519616,
        "lon": -40.137507786498894,
        "alt_km": 19139.35813006117,
        "timestamp": "2025-12-07T20:38:14.309891+00:00",
        "meta_object_name": "COSMOS 2529 (757)",
        "meta_object_id": "2018-086A",
        "meta_epoch": "2025-12-03T00:44:36.468960",
        "meta_mean_motion": 2.13101888,
        "meta_eccentricity": 0.00072932,
        "meta_inclination": 64.2917,
        "meta_ra_of_asc_node": 199.2166,
        "meta_arg_of_pericenter": 254.4618,
        "meta_mean_anomaly": 105.5545,
        "meta_ephemeris_type": 0,
        "meta_classification_type": "U",
        "meta_norad_cat_id": 43687,
        "meta_element_set_no": 999,
        "meta_rev_at_epoch": 5510,
        "meta_bstar": 0,
        "meta_mean_motion_dot": 1.06e-06,
        "meta_mean_motion_ddot": 0,
        "tle_line1": "1 43687U 18086A   25337.03097765  .00000106  00000+0  00000+0 0  9993",
        "tle_line2": "2 43687  64.2917 199.2166 0007293 254.4618 105.5545  2.13101888 55102"
      },
      "geometry": {
        "type": "Point",
        "coordinates": [
          -40.137507786498894,
          60.71075963519616
        ]
      }
    },
    {
      "type": "Feature",
      "properties": {
        "norad_id": 43706,
        "name": "BEIDOU-3 M17 (C36)",
        "group": "gnss",
        "lat": 13.83119023578855,
        "lon": -1.4528837613243626,
        "alt_km": 21540.984215747587,
        "timestamp": "2025-12-07T20:38:14.309902+00:00",
        "meta_object_name": "BEIDOU-3 M17 (C36)",
        "meta_object_id": "2018-093A",
        "meta_epoch": "2025-12-03T14:10:37.280064",
        "meta_mean_motion": 1.86228161,
        "meta_eccentricity": 0.00063465,
        "meta_inclination": 54.1727,
        "meta_ra_of_asc_node": 188.9327,
        "meta_arg_of_pericenter": 306.3477,
        "meta_mean_anomaly": 234.3147,
        "meta_ephemeris_type": 0,
        "meta_classification_type": "U",
        "meta_norad_cat_id": 43706,
        "meta_element_set_no": 999,
        "meta_rev_at_epoch": 4789,
        "meta_bstar": 0,
        "meta_mean_motion_dot": 1.14e-06,
        "meta_mean_motion_ddot": 0,
        "tle_line1": "1 43706U 18093A   25337.59070926  .00000114  00000+0  00000+0 0  9993",
        "tle_line2": "2 43706  54.1727 188.9327 0006346 306.3477 234.3147  1.86228161 47892"
      },
      "geometry": {
        "type": "Point",
        "coordinates": [
          -1.4528837613243626,
          13.83119023578855
        ]
      }
    },
    {
      "type": "Feature",
      "properties": {
        "norad_id": 43707,
        "name": "BEIDOU-3 M18 (C37)",
        "group": "gnss",
        "lat": -51.7654813905176,
        "lon": 75.30021117921886,
        "alt_km": 21536.07473007039,
        "timestamp": "2025-12-07T20:38:14.309914+00:00",
        "meta_object_name": "BEIDOU-3 M18 (C37)",
        "meta_object_id": "2018-093B",
        "meta_epoch": "2025-12-06T22:35:39.985728",
        "meta_mean_motion": 1.86226513,
        "meta_eccentricity": 0.00063709,
        "meta_inclination": 54.1733,
        "meta_ra_of_asc_node": 188.8105,
        "meta_arg_of_pericenter": 351.8977,
        "meta_mean_anomaly": 8.1663,
        "meta_ephemeris_type": 0,
        "meta_classification_type": "U",
        "meta_norad_cat_id": 43707,
        "meta_element_set_no": 999,
        "meta_rev_at_epoch": 4795,
        "meta_bstar": 0,
        "meta_mean_motion_dot": 6.5e-07,
        "meta_mean_motion_ddot": 0,
        "tle_line1": "1 43707U 18093B   25340.94143502  .00000065  00000+0  00000+0 0  9993",
        "tle_line2": "2 43707  54.1733 188.8105 0006370 351.8977   8.1663  1.86226513 47956"
      },
      "geometry": {
        "type": "Point",
        "coordinates": [
          75.30021117921886,
          -51.7654813905176
        ]
      }
    },
    {
      "type": "Feature",
      "properties": {
        "norad_id": 43873,
        "name": "GPS BIII-1  (PRN 04)",
        "group": "gnss",
        "lat": -32.278990914176,
        "lon": -54.617492967476274,
        "alt_km": 20098.03551867288,
        "timestamp": "2025-12-07T20:38:14.309927+00:00",
        "meta_object_name": "GPS BIII-1  (PRN 04)",
        "meta_object_id": "2018-109A",
        "meta_epoch": "2025-12-06T13:44:13.581888",
        "meta_mean_motion": 2.00553236,
        "meta_eccentricity": 0.00371783,
        "meta_inclination": 55.5639,
        "meta_ra_of_asc_node": 99.7903,
        "meta_arg_of_pericenter": 194.7301,
        "meta_mean_anomaly": 175.7639,
        "meta_ephemeris_type": 0,
        "meta_classification_type": "U",
        "meta_norad_cat_id": 43873,
        "meta_element_set_no": 999,
        "meta_rev_at_epoch": 5121,
        "meta_bstar": 0,
        "meta_mean_motion_dot": -4e-08,
        "meta_mean_motion_ddot": 0,
        "tle_line1": "1 43873U 18109A   25340.57237942 -.00000004  00000+0  00000+0 0  9990",
        "tle_line2": "2 43873  55.5639  99.7903 0037178 194.7301 175.7639  2.00553236 51211"
      },
      "geometry": {
        "type": "Point",
        "coordinates": [
          -54.617492967476274,
          -32.278990914176
        ]
      }
    },
    {
      "type": "Feature",
      "properties": {
        "norad_id": 44204,
        "name": "BEIDOU-3 IGSO-1 (C38)",
        "group": "gnss",
        "lat": 57.02587663665115,
        "lon": 148.4659823948985,
        "alt_km": 35846.48933294381,
        "timestamp": "2025-12-07T20:38:14.309939+00:00",
        "meta_object_name": "BEIDOU-3 IGSO-1 (C38)",
        "meta_object_id": "2019-023A",
        "meta_epoch": "2025-11-19T14:15:02.708640",
        "meta_mean_motion": 1.00252177,
        "meta_eccentricity": 0.0026966,
        "meta_inclination": 58.4003,
        "meta_ra_of_asc_node": 39.8168,
        "meta_arg_of_pericenter": 221.2202,
        "meta_mean_anomaly": 126.9723,
        "meta_ephemeris_type": 0,
        "meta_classification_type": "U",
        "meta_norad_cat_id": 44204,
        "meta_element_set_no": 999,
        "meta_rev_at_epoch": 510,
        "meta_bstar": 0,
        "meta_mean_motion_dot": -2.26e-06,
        "meta_mean_motion_ddot": 0,
        "tle_line1": "1 44204U 19023A   25323.59378135 -.00000226  00000+0  00000+0 0  9994",
        "tle_line2": "2 44204  58.4003  39.8168 0026966 221.2202 126.9723  1.00252177  5102"
      },
      "geometry": {
        "type": "Point",
        "coordinates": [
          148.4659823948985,
          57.02587663665115
        ]
      }
    }
  ]
}